[
    {
        "Altitude(m)": 607886.7158267895,
        "Argument of Periapsis(deg)": 0.0,
        "Eccentricity": 0.0,
        "Inclination(deg)": 60.0,
        "Latitude(deg)": 40.998509686196876,
        "Longitude(deg)": 24.972859542985514,
        "Mean Anomaly(deg)": 49.090899999999984,
        "RAAN(deg)": 95.0,
        "Satellite Name": "Test1 421",
        "Satellite Number": 421,
        "Semi-Major Axis(m)": 6980739.136638005,
        "Time(s)": 0
    },
    {
        "Altitude(m)": 607987.6303733542,
        "Argument of Periapsis(deg)": 0.00010418945913296404,
        "Eccentricity": 0.0,
        "Inclination(deg)": 60.0,
        "Latitude(deg)": 41.46360097663893,
        "Longitude(deg)": 25.477085947838006,
        "Mean Anomaly(deg)": 49.71100614546182,
        "RAAN(deg)": 94.99957995086027,
        "Satellite Name": "Test1 421",
        "Satellite Number": 421,
        "Semi-Major Axis(m)": 6980739.136638005,
        "Time(s)": 10
    },
    {
        "Altitude(m)": 608088.5945386773,
        "Argument of Periapsis(deg)": 0.0002083789182659281,
        "Eccentricity": 0.0,
        "Inclination(deg)": 60.0,
        "Latitude(deg)": 41.92602810686546,
        "Longitude(deg)": 25.98913537922785,
        "Mean Anomaly(deg)": 50.33111229092366,
        "RAAN(deg)": 94.99915990172052,
        "Satellite Name": "Test1 421",
        "Satellite Number": 421,
        "Semi-Major Axis(m)": 6980739.136638005,
        "Time(s)": 20
    },
    {
        "Altitude(m)": 608189.5451012732,
        "Argument of Periapsis(deg)": 0.00031256837739889213,
        "Eccentricity": 0.0,
        "Inclination(deg)": 60.0,
        "Latitude(deg)": 42.38571032742256,
        "Longitude(deg)": 26.50920387981205,
        "Mean Anomaly(deg)": 50.951218436385474,
        "RAAN(deg)": 94.99873985258078,
        "Satellite Name": "Test1 421",
        "Satellite Number": 421,
        "Semi-Major Axis(m)": 6980739.136638005,
        "Time(s)": 30
    },
    {
        "Altitude(m)": 608290.4190663884,
        "Argument of Periapsis(deg)": 0.0004167578365318562,
        "Eccentricity": 0.0,
        "Inclination(deg)": 60.0,
        "Latitude(deg)": 42.84256434180435,
        "Longitude(deg)": 27.03749135907255,
        "Mean Anomaly(deg)": 51.57132458184732,
        "RAAN(deg)": 94.99831980344103,
        "Satellite Name": "Test1 421",
        "Satellite Number": 421,
        "Semi-Major Axis(m)": 6980739.136638005,
        "Time(s)": 40
    },
    {
        "Altitude(m)": 608391.1536972397,
        "Argument of Periapsis(deg)": 0.0005209472956648203,
        "Eccentricity": 0.0,
        "Inclination(deg)": 60.0,
        "Latitude(deg)": 43.296504227063146,
        "Longitude(deg)": 27.57420049830094,
        "Mean Anomaly(deg)": 52.19143072730914,
        "RAAN(deg)": 94.99789975430129,
        "Satellite Name": "Test1 421",
        "Satellite Number": 421,
        "Semi-Major Axis(m)": 6980739.136638005,
        "Time(s)": 50
    },
    {
        "Altitude(m)": 608491.6865461032,
        "Argument of Periapsis(deg)": 0.0006251367547977843,
        "Eccentricity": 0.0,
        "Inclination(deg)": 60.0,
        "Latitude(deg)": 43.74744135371314,
        "Longitude(deg)": 28.119537148690842,
        "Mean Anomaly(deg)": 52.81153687277097,
        "RAAN(deg)": 94.99747970516155,
        "Satellite Name": "Test1 421",
        "Satellite Number": 421,
        "Semi-Major Axis(m)": 6980739.136638005,
        "Time(s)": 60
    },
    {
        "Altitude(m)": 608591.9554851983,
        "Argument of Periapsis(deg)": 0.0007293262139307483,
        "Eccentricity": 0.0,
        "Inclination(deg)": 60.0,
        "Latitude(deg)": 44.195284305156825,
        "Longitude(deg)": 28.67371070777492,
        "Mean Anomaly(deg)": 53.43164301823282,
        "RAAN(deg)": 94.9970596560218,
        "Satellite Name": "Test1 421",
        "Satellite Number": 421,
        "Semi-Major Axis(m)": 6980739.136638005,
        "Time(s)": 70
    },
    {
        "Altitude(m)": 608691.8987373777,
        "Argument of Periapsis(deg)": 0.0008335156730637124,
        "Eccentricity": 0.0,
        "Inclination(deg)": 60.0,
        "Latitude(deg)": 44.639938796895876,
        "Longitude(deg)": 29.236932959320892,
        "Mean Anomaly(deg)": 54.05174916369463,
        "RAAN(deg)": 94.99663960688207,
        "Satellite Name": "Test1 421",
        "Satellite Number": 421,
        "Semi-Major Axis(m)": 6980739.136638005,
        "Time(s)": 80
    },
    {
        "Altitude(m)": 608791.4549065899,
        "Argument of Periapsis(deg)": 0.0009377051321966765,
        "Eccentricity": 0.0,
        "Inclination(deg)": 60.0,
        "Latitude(deg)": 45.081307595834346,
        "Longitude(deg)": 29.809418400299386,
        "Mean Anomaly(deg)": 54.67185530915647,
        "RAAN(deg)": 94.99621955774232,
        "Satellite Name": "Test1 421",
        "Satellite Number": 421,
        "Semi-Major Axis(m)": 6980739.136638005,
        "Time(s)": 90
    },
    {
        "Altitude(m)": 608890.563008126,
        "Argument of Periapsis(deg)": 0.0010418945913296407,
        "Eccentricity": 0.0,
        "Inclination(deg)": 60.0,
        "Latitude(deg)": 45.519290440012455,
        "Longitude(deg)": 30.39138453979185,
        "Mean Anomaly(deg)": 55.2919614546183,
        "RAAN(deg)": 94.99579950860257,
        "Satellite Name": "Test1 421",
        "Satellite Number": 421,
        "Semi-Major Axis(m)": 6980739.136638005,
        "Time(s)": 100
    },
    {
        "Altitude(m)": 608989.1624986023,
        "Argument of Periapsis(deg)": 0.0011460840504626045,
        "Eccentricity": 0.0,
        "Inclination(deg)": 60.0,
        "Latitude(deg)": 45.95378395915516,
        "Longitude(deg)": 30.983050654582897,
        "Mean Anomaly(deg)": 55.912067600080135,
        "RAAN(deg)": 94.99537945946284,
        "Satellite Name": "Test1 421",
        "Satellite Number": 421,
        "Semi-Major Axis(m)": 6980739.136638005,
        "Time(s)": 110
    },
    {
        "Altitude(m)": 609087.193305701,
        "Argument of Periapsis(deg)": 0.0012502735095955685,
        "Eccentricity": 0.0,
        "Inclination(deg)": 60.0,
        "Latitude(deg)": 46.38468159647223,
        "Longitude(deg)": 31.584638024687155,
        "Mean Anomaly(deg)": 56.532173745541954,
        "RAAN(deg)": 94.99495941032309,
        "Satellite Name": "Test1 421",
        "Satellite Number": 421,
        "Semi-Major Axis(m)": 6980739.136638005,
        "Time(s)": 120
    },
    {
        "Altitude(m)": 609184.595857627,
        "Argument of Periapsis(deg)": 0.0013544629687285324,
        "Eccentricity": 0.0,
        "Inclination(deg)": 60.0,
        "Latitude(deg)": 46.81187353219157,
        "Longitude(deg)": 32.19637013332552,
        "Mean Anomaly(deg)": 57.1522798910038,
        "RAAN(deg)": 94.99453936118334,
        "Satellite Name": "Test1 421",
        "Satellite Number": 421,
        "Semi-Major Axis(m)": 6980739.136638005,
        "Time(s)": 130
    },
    {
        "Altitude(m)": 609281.3111122878,
        "Argument of Periapsis(deg)": 0.0014586524278614966,
        "Eccentricity": 0.0,
        "Inclination(deg)": 60.0,
        "Latitude(deg)": 47.23524660936047,
        "Longitude(deg)": 32.818471315759986,
        "Mean Anomaly(deg)": 57.77238603646561,
        "RAAN(deg)": 94.99411931204361,
        "Satellite Name": "Test1 421",
        "Satellite Number": 421,
        "Semi-Major Axis(m)": 6980739.136638005,
        "Time(s)": 140
    },
    {
        "Altitude(m)": 609377.2805861693,
        "Argument of Periapsis(deg)": 0.0015628418869944607,
        "Eccentricity": 0.0,
        "Inclination(deg)": 60.0,
        "Latitude(deg)": 47.65468426251602,
        "Longitude(deg)": 33.451166879927584,
        "Mean Anomaly(deg)": 58.392492181927445,
        "RAAN(deg)": 94.99369926290386,
        "Satellite Name": "Test1 421",
        "Satellite Number": 421,
        "Semi-Major Axis(m)": 6980739.136638005,
        "Time(s)": 150
    },
    {
        "Altitude(m)": 609472.4463829058,
        "Argument of Periapsis(deg)": 0.0016670313461274247,
        "Eccentricity": 0.0,
        "Inclination(deg)": 60.0,
        "Latitude(deg)": 48.07006644987982,
        "Longitude(deg)": 34.09468318311313,
        "Mean Anomaly(deg)": 59.01259832738929,
        "RAAN(deg)": 94.99327921376413,
        "Satellite Name": "Test1 421",
        "Satellite Number": 421,
        "Semi-Major Axis(m)": 6980739.136638005,
        "Time(s)": 160
    },
    {
        "Altitude(m)": 609566.7512215229,
        "Argument of Periapsis(deg)": 0.0017712208052603888,
        "Eccentricity": 0.0,
        "Inclination(deg)": 60.0,
        "Latitude(deg)": 48.48126958979809,
        "Longitude(deg)": 34.74924614884031,
        "Mean Anomaly(deg)": 59.63270447285113,
        "RAAN(deg)": 94.99285916462438,
        "Satellite Name": "Test1 421",
        "Satellite Number": 421,
        "Semi-Major Axis(m)": 6980739.136638005,
        "Time(s)": 170
    },
    {
        "Altitude(m)": 609660.1384643534,
        "Argument of Periapsis(deg)": 0.001875410264393353,
        "Eccentricity": 0.0,
        "Inclination(deg)": 60.0,
        "Latitude(deg)": 48.8881665022229,
        "Longitude(deg)": 35.41508124674978,
        "Mean Anomaly(deg)": 60.25281061831294,
        "RAAN(deg)": 94.99243911548464,
        "Satellite Name": "Test1 421",
        "Satellite Number": 421,
        "Semi-Major Axis(m)": 6980739.136638005,
        "Time(s)": 180
    },
    {
        "Altitude(m)": 609752.5521445785,
        "Argument of Periapsis(deg)": 0.0019795997235263173,
        "Eccentricity": 0.0,
        "Inclination(deg)": 60.0,
        "Latitude(deg)": 49.290626356097484,
        "Longitude(deg)": 36.09241341960346,
        "Mean Anomaly(deg)": 60.87291676377476,
        "RAAN(deg)": 94.9920190663449,
        "Satellite Name": "Test1 421",
        "Satellite Number": 421,
        "Semi-Major Axis(m)": 6980739.136638005,
        "Time(s)": 190
    }
]